NUSAT-1 (FRESCO)        
1 41557U 16033B   22354.94447701  .00024670  00000+0  60286-3 0  9990
2 41557  97.3896  93.6641 0010677  70.2850 356.0013 15.40757420366039
BEESAT-4                
1 41619U 16040W   22354.10881333  .00028488  00000+0  76890-3 0  9997
2 41619  97.1923  40.2268 0008176 158.0948 202.0648 15.37703626349180
CAS-2T & KS-1Q          
1 41847U 16066G   22354.72286698  .00000822  00000+0  13232-3 0  9992
2 41847  98.5296  59.0108 0362693  12.6382 348.3606 14.38964662321138
NAYIF-1 (EO-88)         
1 42017U 17008BX  22354.45584545  .00035838  00000+0  81997-3 0  9999
2 42017  97.2468  58.5023 0002801 311.4660  48.6347 15.42721234325662
ZHUHAI-1 02 (CAS-4B)    
1 42759U 17034B   22354.60637122  .00007124  00000+0  40163-3 0  9995
2 42759  43.0180  25.5114 0010301  19.5854 127.2380 15.13593871304542
ZHUHAI-1 01 (CAS-4A)    
1 42761U 17034D   22354.94684638  .00007103  00000+0  39934-3 0  9990
2 42761  43.0187  22.2813 0010200  24.2702  43.8991 15.13698634304606
MAX VALIER SAT          
1 42778U 17036P   22354.11011056  .00016425  00000+0  55425-3 0  9997
2 42778  97.1835  28.9906 0010845  33.8856 326.3076 15.30711699305263
RADFXSAT (FOX-1B)       
1 43017U 17073E   22354.50811709  .00008183  00000+0  60331-3 0  9995
2 43017  97.6532 241.0142 0241995 298.0167  59.6756 14.83025813274675
FOX-1D (AO-92)          
1 43137U 18004AC  22354.20519148  .00019781  00000+0  60370-3 0  9991
2 43137  97.3527  68.0048 0008325  66.6189 293.5929 15.33923213274771
DIWATA-2B               
1 43678U 18084H   22354.91592170  .00001016  00000+0  10456-3 0  9995
2 43678  97.9952 130.7209 0010659  36.5109 323.6828 14.92564656225669
ES'HAIL 2               
1 43700U 18090A   22354.68299421  .00000171  00000+0  00000+0 0  9996
2 43700   0.0042  82.6922 0001260 228.2280  49.9953  1.00270514 15144
FOX-1CLIFF (AO-95)      
1 43770U 18099N   22354.75859191  .00003203  00000+0  27921-3 0  9990
2 43770  97.5999  56.1570 0014191  15.1202 345.0442 14.97496236220885
ITASAT 1                
1 43786U 18099AE  22354.14000372  .00003763  00000+0  32699-3 0  9998
2 43786  97.6044  56.5617 0014847  12.9453 347.2147 14.97502930220831
JY1SAT (JO-97)          
1 43803U 18099AX  22354.21721558  .00004038  00000+0  34391-3 0  9999
2 43803  97.6002  56.4708 0014804   9.8044 350.3464 14.98244932220876
UWE-4                   
1 43880U 18111E   22354.47942997  .00005482  00000+0  45154-3 0  9992
2 43880  97.6570 257.5288 0013178  64.5661 295.6925 14.99413227217565
NEXUS (FO-99)           
1 43937U 19003F   22354.32459867  .00022959  00000+0  64671-3 0  9992
2 43937  97.1118  20.8556 0016955 201.3931 158.6606 15.36303433218459
PSAT2 (NO-104)          
1 44354U 19036R   22354.57285748  .00200616  46210-5  85373-3 0  9993
2 44354  28.5201 303.5703 0129126 308.3490  50.5575 15.72149269193623
JAISAT-1                
1 44419U 19038F   22354.48246671  .00014426  00000+0  65017-3 0  9995
2 44419  97.6577 326.7733 0016553 201.8564 158.1967 15.21030370191293
DUCHIFAT-3              
1 44854U 19089C   22354.63801046  .00006714  00000+0  49901-3 0  9999
2 44854  36.9641  75.4348 0008074 299.8923 206.9894 15.02664328165937
CAS-6 (TIANQIN 1)       
1 44881U 19093C   22354.67738897  .00000901  00000+0  12009-3 0  9992
2 44881  97.8795  71.0969 0013750 303.5067  56.4851 14.81982614162354
RS-44 & BREEZE-KM R/B   
1 44909U 19096E   22354.81122019 -.00000004  00000+0 -54511-4 0  9996
2 44909  82.5215 106.4777 0216629 243.8536 114.0139 12.79717179139395
ORBITAL FACTORY 2 (OF-2)
1 45113U 19071C   22354.04134962  .00075368  00000+0  89273-3 0  9997
2 45113  51.6325 218.2390 0011101 146.5968 213.5727 15.60491514162187
HUSKYSAT-1 (HO-107)     
1 45119U 19071J   22354.06337830  .00058895  00000+0  79572-3 0  9991
2 45119  51.6335 220.6004 0010887 140.6073 219.5712 15.57116108162140
BY70-2                  
1 45857U 20042B   22354.62838550  .00011824  00000+0  14691-2 0  9998
2 45857  97.9430  69.8942 0009414 225.6865 134.3586 14.82697297133016
SALSAT                  
1 46495U 20068K   22354.40088217  .00004811  00000+0  33785-3 0  9992
2 46495  97.7496 296.0505 0016616  12.1230 348.0393 15.05514700122157
BY70-3                  
1 46839U 20079N   22354.82511824  .00060261  00000+0  91897-3 0  9996
2 46839  97.1785  65.5333 0004397  29.5433  64.9457 15.54263430119057
RADFXSAT-2 (AO-109)     
1 47311U 21002C   22354.57218912  .00013712  00000+0  47971-3 0  9996
2 47311  60.6847  19.8774 0038790  85.5007 275.0513 15.29140691106892
UVSQ-SAT                
1 47438U 21006AB  22354.11929792  .00010445  00000+0  51179-3 0  9990
2 47438  97.4144  49.3473 0011075 357.7759   2.3424 15.18279571105427
DIY-1 (ARDUIQUBE)       
1 47963U 21022AH  22354.46417213  .00034981  00000+0  15466-2 0  9998
2 47963  97.5177 254.3464 0012234 201.7492 158.3225 15.21546977 95144
XW-3 (CAS-9)            
1 50466U 21131B   22354.92744144  .00000331  00000+0  12277-3 0  9998
2 50466  98.5679  71.9680 0003626 321.3497  38.7430 14.38599045 51722
TEVEL-3                 
1 50988U 22002E   22354.80152207  .00012103  00000+0  60601-3 0  9999
2 50988  97.4611  58.7844 0010010 131.8203 323.1794 15.17494843 51647
TEVEL-8                 
1 50989U 22002F   22354.81305053  .00012064  00000+0  60499-3 0  9991
2 50989  97.4624  58.8334 0010137 131.3677 322.6908 15.17438469 51640
TEVEL-5                 
1 50998U 22002Q   22354.82560034  .00012606  00000+0  62068-3 0  9990
2 50998  97.4604  59.0215 0011540 128.3249 325.3942 15.18056986 51660
TEVEL-6                 
1 50999U 22002R   22354.82464531  .00012614  00000+0  62093-3 0  9993
2 50999  97.4597  59.0173 0011566 128.2258 325.6171 15.18063677 51664
TEVEL-1                 
1 51013U 22002AF  22354.80726302  .00012048  00000+0  60378-3 0  9991
2 51013  97.4602  58.7541 0009935 132.0088 324.1021 15.17464296 51642
TEVEL-7                 
1 51062U 22002CG  22354.81519521  .00012096  00000+0  60658-3 0  9993
2 51062  97.4616  58.8150 0010252 130.9413 323.6104 15.17438626 51645
TEVEL-4                 
1 51063U 22002CH  22354.81698097  .00012035  00000+0  60389-3 0  9994
2 51063  97.4620  58.8099 0010160 130.6329 323.1434 15.17418778 51641
TEVEL-2                 
1 51069U 22002CP  22354.80328439  .00012108  00000+0  60631-3 0  9990
2 51069  97.4600  58.7650 0009993 131.5804 323.2263 15.17490599 51649
GREENCUBE               
1 53106U 22080B   22354.06292525 -.00000003  00000+0  00000+0 0  9996
2 53106  70.1740  21.9554 0009007 225.1214 134.8715  6.42557574 10246
YUZGU 9 (RS3S)          
1 53308U 98067TT  22354.82588714  .00197824  00000+0  13225-2 0  9993
2 53308  51.6335 122.1145 0005649 263.7662  96.2693 15.74153674 23807
YUZGU 7 (RS1S)          
1 53309U 98067TU  22354.60572812  .00207742  00000+0  13352-2 0  9994
2 53309  51.6323 122.8856 0006296 266.3319  93.6961 15.75027682 23728
YUZGU 11 (RS5S)         
1 53310U 98067TV  22354.88779996  .00190983  00000+0  12718-2 0  9991
2 53310  51.6339 121.7777 0005867 263.8494  96.1837 15.74263909 23796
YUZGU 12 (RS6S)         
1 53311U 98067TW  22354.63754959  .00224582  00000+0  13723-2 0  9997
2 53311  51.6309 122.3436 0005790 267.1284  92.9054 15.76137121 23784
TSIOLKOVSKY-RYAZAN 1 (*)
1 53312U 98067TX  22354.92947610  .00196377  00000+0  12764-2 0  9992
2 53312  51.6321 121.3065 0006593 269.1345  90.8898 15.74801843 23766
TSIOLKOVSKY-RYAZAN 2 (*)
1 53313U 98067TY  22354.86001752  .00191877  00000+0  12438-2 0  9992
2 53313  51.6334 121.5941 0006140 271.2810  88.7486 15.74881354 23804
YUZGU 10 (RS4S)         
1 53321U 98067TZ  22354.87559798  .00190939  00000+0  12534-2 0  9995
2 53321  51.6330 121.6945 0005921 265.3677  94.6646 15.74595420 23805
RS29S (SXC3-2110 CYCLO*)
1 53373U 22096D   22354.82884622  .00016959  00000+0  62639-3 0  9994
2 53373  97.4274 255.4835 0003382  71.9714 328.3082 15.27805339 20363
RS32S (SXC3-212 MONITO*)
1 53374U 22096E   22354.82654781  .00015567  00000+0  57525-3 0  9998
2 53374  97.4272 255.4936 0003382  66.5019   6.2691 15.27809049 20362
RS34S (SXC3-218 KUZBAS*)
1 53375U 22096F   22354.84267120  .00012852  00000+0  48217-3 0  9990
2 53375  97.4279 255.4751 0003424  67.1550   0.9931 15.27353637 20364
RS23S (SXC3-21 UTMN)    
1 53376U 22096G   22354.77668558  .00014477  00000+0  54101-3 0  9997
2 53376  97.4276 255.4187 0003327  65.2114  22.3851 15.27454879 20350
RS28S (SXC3-214 MIET-A*)
1 53377U 22096H   22354.77645529  .00013648  00000+0  51169-3 0  9991
2 53377  97.4278 255.4197 0003480  66.7370  18.1700 15.27361086 20357
RS26S (KAI-1)           
1 53378U 22096J   22354.78445686  .00011963  00000+0  45223-3 0  9997
2 53378  97.4283 255.4094 0003280  60.6018  27.1749 15.27118945 20357
RS19S (SXC3-219 ISOI)   
1 53381U 22096M   22354.80078697  .00013986  00000+0  51596-3 0  9995
2 53381  97.4282 255.5380 0004262   5.3873  80.4415 15.27886653 20366
RS21S (CUBESX-HSE-2)    
1 53383U 22096P   22354.79704168  .00014431  00000+0  53114-3 0  9998
2 53383  97.4280 255.5451 0004560   4.1697  81.9793 15.27953906 20368
RS30S (SXC3-217 SIREN)  
1 53384U 22096Q   22354.99343929  .00012768  00000+0  47345-3 0  9995
2 53384  97.4283 255.7275 0004484   1.6743  55.2984 15.27736869 20393
RS20S (GEOSCAN-EDELVEIS)
1 53385U 22096R   22354.75687323  .00017932  00000+0  64224-3 0  9992
2 53385  97.4274 255.5940 0004766   3.6238  81.3347 15.28802208 20390
RS33S (SXC3-215 VIZARD) 
1 53386U 22096S   22354.83525891  .00020778  00000+0  72337-3 0  9999
2 53386  97.4277 255.7736 0005662 358.7318  41.4408 15.29694894 20406
CAS-5A (FO-118)         
1 54684U 22167C   22354.82169317  .00008590  00000+0  54769-3 0  9993
2 54684  97.5374 129.6154 0014007 225.6019 302.3966 15.08880133  1736
